start=new Date('2022-09-13T00:00:00.000Z').valueOf();
sats=[{"MEAN_MOTION":"15.08840131","ECCENTRICITY":"0.00019630","CLASSIFICATION_TYPE":"U","COUNTRY_CODE":"US","OBJECT_NAME":"STARLINK-3258","TIME_SYSTEM":"UTC","MEAN_MOTION_DDOT":"0.0000000000000","MEAN_ELEMENT_THEORY":"SGP4","INCLINATION":"53.2173","GP_ID":"212400111","MEAN_MOTION_DOT":"0.00001113","PERIOD":"95.438","MEAN_ANOMALY":"307.1998","ARG_OF_PERICENTER":"52.9174","RA_OF_ASC_NODE":"201.0951","EPOCH":"2022-09-12T01:48:31.840992","APOAPSIS":"541.103","BSTAR":"0.00008801700000","LAUNCH_DATE":"2021-12-18","OBJECT_TYPE":"PAYLOAD","TLE_LINE1":"1 50206U 21125BC  22255.07536853  .00001113  00000-0  88017-4 0  9991","RCS_SIZE":"LARGE","FILE":"3570189","NORAD_CAT_ID":"50206","REF_FRAME":"TEME","DECAY_DATE":null,"TLE_LINE2":"2 50206  53.2173 201.0951 0001963  52.9174 307.1998 15.08840131 42230","EPHEMERIS_TYPE":"0","OBJECT_ID":"2021-125BC","PERIAPSIS":"538.387","SITE":"AFWTR","ELEMENT_SET_NO":"999","SEMIMAJOR_AXIS":"6917.880","REV_AT_EPOCH":"4223","CENTER_NAME":"EARTH"},{"CENTER_NAME":"EARTH","REV_AT_EPOCH":"4241","SEMIMAJOR_AXIS":"6917.882","SITE":"AFWTR","ELEMENT_SET_NO":"999","PERIAPSIS":"537.887","OBJECT_ID":"2021-125BD","EPHEMERIS_TYPE":"0","REF_FRAME":"TEME","DECAY_DATE":null,"TLE_LINE2":"2 50207  53.2180 197.8094 0002688  52.5329 307.5908 15.08839497 42410","FILE":"3570509","NORAD_CAT_ID":"50207","RCS_SIZE":"LARGE","TLE_LINE1":"1 50207U 21125BD  22255.80769199 -.00000160  00000-0  80633-5 0  9993","BSTAR":"0.00000806330000","OBJECT_TYPE":"PAYLOAD","LAUNCH_DATE":"2021-12-18","APOAPSIS":"541.606","RA_OF_ASC_NODE":"197.8094","EPOCH":"2022-09-12T19:23:04.587936","MEAN_ANOMALY":"307.5908","ARG_OF_PERICENTER":"52.5329","PERIOD":"95.438","MEAN_MOTION_DOT":"-0.00000160","INCLINATION":"53.2180","MEAN_ELEMENT_THEORY":"SGP4","GP_ID":"212433437","TIME_SYSTEM":"UTC","MEAN_MOTION_DDOT":"0.0000000000000","COUNTRY_CODE":"US","OBJECT_NAME":"STARLINK-3262","ECCENTRICITY":"0.00026880","MEAN_MOTION":"15.08839497","CLASSIFICATION_TYPE":"U"},{"ARG_OF_PERICENTER":"50.4412","MEAN_ANOMALY":"309.6737","MEAN_MOTION_DOT":"0.00000835","PERIOD":"95.438","EPOCH":"2022-09-12T15:49:46.995744","RA_OF_ASC_NODE":"128.4594","OBJECT_NAME":"STARLINK-3321","COUNTRY_CODE":"US","CLASSIFICATION_TYPE":"U","MEAN_MOTION":"15.08838926","ECCENTRICITY":"0.00017800","GP_ID":"212433235","INCLINATION":"53.2182","MEAN_ELEMENT_THEORY":"SGP4","MEAN_MOTION_DDOT":"0.0000000000000","TIME_SYSTEM":"UTC","OBJECT_ID":"2022-001A","EPHEMERIS_TYPE":"0","TLE_LINE2":"2 50803  53.2182 128.4594 0001780  50.4412 309.6737 15.08838926 38077","DECAY_DATE":null,"REF_FRAME":"TEME","SEMIMAJOR_AXIS":"6917.884","CENTER_NAME":"EARTH","REV_AT_EPOCH":"3807","PERIAPSIS":"538.517","ELEMENT_SET_NO":"999","SITE":"AFETR","LAUNCH_DATE":"2022-01-06","OBJECT_TYPE":"PAYLOAD","BSTAR":"0.00007055300000","APOAPSIS":"540.980","NORAD_CAT_ID":"50803","FILE":"3570509","TLE_LINE1":"1 50803U 22001A   22255.65957171  .00000835  00000-0  70553-4 0  9998","RCS_SIZE":"LARGE"},{"BSTAR":"0.00007289700000","LAUNCH_DATE":"2022-01-06","OBJECT_TYPE":"PAYLOAD","APOAPSIS":"541.131","FILE":"3570509","NORAD_CAT_ID":"50804","RCS_SIZE":"LARGE","TLE_LINE1":"1 50804U 22001B   22255.89233577  .00000872  00000-0  72897-4 0  9996","OBJECT_ID":"2022-001B","EPHEMERIS_TYPE":"0","REF_FRAME":"TEME","DECAY_DATE":null,"TLE_LINE2":"2 50804  53.2164 117.4268 0002004  45.9059 314.2098 15.08840117 38246","CENTER_NAME":"EARTH","REV_AT_EPOCH":"3824","SEMIMAJOR_AXIS":"6917.880","ELEMENT_SET_NO":"999","SITE":"AFETR","PERIAPSIS":"538.359","COUNTRY_CODE":"US","OBJECT_NAME":"STARLINK-3323","ECCENTRICITY":"0.00020040","MEAN_MOTION":"15.08840117","CLASSIFICATION_TYPE":"U","MEAN_ELEMENT_THEORY":"SGP4","INCLINATION":"53.2164","GP_ID":"212433465","TIME_SYSTEM":"UTC","MEAN_MOTION_DDOT":"0.0000000000000","MEAN_ANOMALY":"314.2098","ARG_OF_PERICENTER":"45.9059","PERIOD":"95.438","MEAN_MOTION_DOT":"0.00000872","RA_OF_ASC_NODE":"117.4268","EPOCH":"2022-09-12T21:24:57.810528"},{"DECAY_DATE":null,"REF_FRAME":"TEME","TLE_LINE2":"2 50805  53.2176 118.6278 0001545  61.2046 298.9101 15.08842700 38209","EPHEMERIS_TYPE":"0","OBJECT_ID":"2022-001C","ELEMENT_SET_NO":"999","SITE":"AFETR","PERIAPSIS":"538.668","REV_AT_EPOCH":"3820","CENTER_NAME":"EARTH","SEMIMAJOR_AXIS":"6917.872","APOAPSIS":"540.806","BSTAR":"0.00003697000000","LAUNCH_DATE":"2022-01-06","OBJECT_TYPE":"PAYLOAD","RCS_SIZE":"LARGE","TLE_LINE1":"1 50805U 22001C   22255.62369433  .00000300  00000-0  36970-4 0  9997","NORAD_CAT_ID":"50805","FILE":"3570509","PERIOD":"95.437","MEAN_MOTION_DOT":"0.00000300","MEAN_ANOMALY":"298.9101","ARG_OF_PERICENTER":"61.2046","RA_OF_ASC_NODE":"118.6278","EPOCH":"2022-09-12T14:58:07.190112","ECCENTRICITY":"0.00015450","MEAN_MOTION":"15.08842700","CLASSIFICATION_TYPE":"U","COUNTRY_CODE":"US","OBJECT_NAME":"STARLINK-3333","TIME_SYSTEM":"UTC","MEAN_MOTION_DDOT":"0.0000000000000","MEAN_ELEMENT_THEORY":"SGP4","INCLINATION":"53.2176","GP_ID":"212431741"},{"OBJECT_NAME":"STARLINK-3335","COUNTRY_CODE":"US","CLASSIFICATION_TYPE":"U","MEAN_MOTION":"15.08841321","ECCENTRICITY":"0.00015460","GP_ID":"212431991","INCLINATION":"53.2160","MEAN_ELEMENT_THEORY":"SGP4","MEAN_MOTION_DDOT":"0.0000000000000","TIME_SYSTEM":"UTC","ARG_OF_PERICENTER":"59.3299","MEAN_ANOMALY":"300.7845","MEAN_MOTION_DOT":"0.00000679","PERIOD":"95.437","EPOCH":"2022-09-12T18:03:35.587872","RA_OF_ASC_NODE":"118.0370","LAUNCH_DATE":"2022-01-06","OBJECT_TYPE":"PAYLOAD","BSTAR":"0.00006078000000","APOAPSIS":"540.811","FILE":"3570509","NORAD_CAT_ID":"50806","TLE_LINE1":"1 50806U 22001D   22255.75249523  .00000679  00000-0  60780-4 0  9994","RCS_SIZE":"LARGE","EPHEMERIS_TYPE":"0","OBJECT_ID":"2022-001D","TLE_LINE2":"2 50806  53.2160 118.0370 0001546  59.3299 300.7845 15.08841321 38226","DECAY_DATE":null,"REF_FRAME":"TEME","SEMIMAJOR_AXIS":"6917.876","REV_AT_EPOCH":"3822","CENTER_NAME":"EARTH","PERIAPSIS":"538.672","ELEMENT_SET_NO":"999","SITE":"AFETR"},{"GP_ID":"212432735","MEAN_ELEMENT_THEORY":"SGP4","INCLINATION":"53.2180","MEAN_MOTION_DDOT":"0.0000000000000","TIME_SYSTEM":"UTC","OBJECT_NAME":"STARLINK-3353","COUNTRY_CODE":"US","CLASSIFICATION_TYPE":"U","MEAN_MOTION":"15.08843368","ECCENTRICITY":"0.00016070","EPOCH":"2022-09-12T16:07:00.597216","RA_OF_ASC_NODE":"118.4279","ARG_OF_PERICENTER":"58.1813","MEAN_ANOMALY":"301.9335","MEAN_MOTION_DOT":"0.00001333","PERIOD":"95.437","FILE":"3570509","NORAD_CAT_ID":"50807","TLE_LINE1":"1 50807U 22001E   22255.67153469  .00001333  00000-0  10182-3 0  9997","RCS_SIZE":"LARGE","OBJECT_TYPE":"PAYLOAD","LAUNCH_DATE":"2022-01-06","BSTAR":"0.00010182000000","APOAPSIS":"540.847","SEMIMAJOR_AXIS":"6917.870","REV_AT_EPOCH":"3821","CENTER_NAME":"EARTH","PERIAPSIS":"538.623","ELEMENT_SET_NO":"999","SITE":"AFETR","OBJECT_ID":"2022-001E","EPHEMERIS_TYPE":"0","TLE_LINE2":"2 50807  53.2180 118.4279 0001607  58.1813 301.9335 15.08843368 38217","DECAY_DATE":null,"REF_FRAME":"TEME"},{"DECAY_DATE":null,"REF_FRAME":"TEME","TLE_LINE2":"2 50808  53.2174 121.3514 0001690  57.4788 302.6367 15.08839829 38110","EPHEMERIS_TYPE":"0","OBJECT_ID":"2022-001F","PERIAPSIS":"538.577","SITE":"AFETR","ELEMENT_SET_NO":"999","SEMIMAJOR_AXIS":"6917.881","CENTER_NAME":"EARTH","REV_AT_EPOCH":"3811","APOAPSIS":"540.915","BSTAR":"0.00005345000000","OBJECT_TYPE":"PAYLOAD","LAUNCH_DATE":"2022-01-06","TLE_LINE1":"1 50808U 22001F   22255.01649697  .00000563  00000-0  53450-4 0  9999","RCS_SIZE":"LARGE","FILE":"3570189","NORAD_CAT_ID":"50808","MEAN_MOTION_DOT":"0.00000563","PERIOD":"95.438","MEAN_ANOMALY":"302.6367","ARG_OF_PERICENTER":"57.4788","RA_OF_ASC_NODE":"121.3514","EPOCH":"2022-09-12T00:23:45.338208","MEAN_MOTION":"15.08839829","ECCENTRICITY":"0.00016900","CLASSIFICATION_TYPE":"U","COUNTRY_CODE":"US","OBJECT_NAME":"STARLINK-3355","TIME_SYSTEM":"UTC","MEAN_MOTION_DDOT":"0.0000000000000","MEAN_ELEMENT_THEORY":"SGP4","INCLINATION":"53.2174","GP_ID":"212401142"},{"RA_OF_ASC_NODE":"117.4708","EPOCH":"2022-09-12T21:09:03.845664","MEAN_MOTION_DOT":"0.00002381","PERIOD":"95.438","MEAN_ANOMALY":"299.9201","ARG_OF_PERICENTER":"60.1982","TIME_SYSTEM":"UTC","MEAN_MOTION_DDOT":"0.0000000000000","INCLINATION":"53.2160","MEAN_ELEMENT_THEORY":"SGP4","GP_ID":"212432242","MEAN_MOTION":"15.08840035","ECCENTRICITY":"0.00019200","CLASSIFICATION_TYPE":"U","COUNTRY_CODE":"US","OBJECT_NAME":"STARLINK-3232","PERIAPSIS":"538.417","ELEMENT_SET_NO":"999","SITE":"AFETR","SEMIMAJOR_AXIS":"6917.880","CENTER_NAME":"EARTH","REV_AT_EPOCH":"3824","DECAY_DATE":null,"REF_FRAME":"TEME","TLE_LINE2":"2 50809  53.2160 117.4708 0001920  60.1982 299.9201 15.08840035 38240","EPHEMERIS_TYPE":"0","OBJECT_ID":"2022-001G","TLE_LINE1":"1 50809U 22001G   22255.88129451  .00002381  00000-0  16765-3 0  9993","RCS_SIZE":"LARGE","FILE":"3570509","NORAD_CAT_ID":"50809","APOAPSIS":"541.074","BSTAR":"0.00016765000000","LAUNCH_DATE":"2022-01-06","OBJECT_TYPE":"PAYLOAD"},{"LAUNCH_DATE":"2022-01-06","OBJECT_TYPE":"PAYLOAD","BSTAR":"0.00001919700000","APOAPSIS":"540.935","NORAD_CAT_ID":"50810","FILE":"3570509","TLE_LINE1":"1 50810U 22001H   22255.80769885  .00000017  00000-0  19197-4 0  9995","RCS_SIZE":"LARGE","OBJECT_ID":"2022-001H","EPHEMERIS_TYPE":"0","TLE_LINE2":"2 50810  53.2155 117.8179 0001727  51.3851 308.7295 15.08841786 38239","DECAY_DATE":null,"REF_FRAME":"TEME","SEMIMAJOR_AXIS":"6917.875","CENTER_NAME":"EARTH","REV_AT_EPOCH":"3823","PERIAPSIS":"538.545","ELEMENT_SET_NO":"999","SITE":"AFETR","OBJECT_NAME":"STARLINK-3348","COUNTRY_CODE":"US","CLASSIFICATION_TYPE":"U","MEAN_MOTION":"15.08841786","ECCENTRICITY":"0.00017270","GP_ID":"212432492","INCLINATION":"53.2155","MEAN_ELEMENT_THEORY":"SGP4","MEAN_MOTION_DDOT":"0.0000000000000","TIME_SYSTEM":"UTC","ARG_OF_PERICENTER":"51.3851","MEAN_ANOMALY":"308.7295","MEAN_MOTION_DOT":"0.00000017","PERIOD":"95.437","EPOCH":"2022-09-12T19:23:05.180640","RA_OF_ASC_NODE":"117.8179"}];
